SL-3 R/B                
1 13403U 82079B   25343.46277051  .00008156  00000+0  33694-3 0  9993
2 13403  81.1472 299.5232 0026975 109.5034 250.9116 15.23527906363959
SL-14 R/B               
1 13553U 82092B   25343.19106601  .00000748  00000+0  81469-4 0  9999
2 13553  82.5688 226.0304 0019001 239.6808 238.7982 14.86549856315486
SL-3 R/B                
1 13819U 83010B   25343.46555774  .00018981  00000+0  42272-3 0  9990
2 13819  81.1040 112.6150 0017355   2.5094 357.6232 15.43320263344014
SL-3 R/B                
1 14208U 83075B   25343.46500493  .00014413  00000+0  40957-3 0  9996
2 14208  97.6108 339.8384 0022383 187.1266 172.9663 15.36031838316298
COSMOS 1536             
1 14699U 84013A   25343.06006347  .00007030  00000+0  30180-3 0  9992
2 14699  82.5455 197.8137 0013367 239.9466 120.0445 15.22455565258826
SL-14 R/B               
1 14820U 84027B   25343.45777872  .00000970  00000+0  10845-3 0  9996
2 14820  82.5410 329.6342 0016385 272.7438  87.1903 14.85869416234236
SL-8 R/B                
1 15483U 85006B   25343.41349265  .00000493  00000+0  17217-3 0  9997
2 15483  74.0467  67.2544 0018536   0.3242  71.6943 14.37718524141056
SL-12 R/B(2)            
1 15772U 85042D   25343.30941176  .00000313  00000+0  16236-3 0  9996
2 15772  71.1086 278.6666 0037678 266.5572 208.3199 14.21950538101543
SL-14 R/B               
1 15945U 85069B   25343.40270301  .00001100  00000+0  12178-3 0  9999
2 15945  82.5264 109.8399 0019973 128.8531 231.4472 14.86318818159421
SL-16 R/B               
1 16182U 85097B   25343.39889141  .00000158  00000+0  10327-3 0  9996
2 16182  71.0030 330.6366 0006469  16.2142  89.9320 14.16582261 74445
SL-14 R/B               
1 16496U 86006B   25343.46921203  .00001170  00000+0  12232-3 0  9991
2 16496  82.5264 344.6288 0075897 210.7677 148.9081 14.86665812135801
COSMOS 1743             
1 16719U 86034A   25343.49516096  .00034637  00000+0  57590-3 0  9993
2 16719  82.5347 167.9613 0004669 267.9302  92.1415 15.51886891166234
