CCSDS_OMM_VERS = 2.0
CREATION_DATE  = 
ORIGINATOR     = 

OBJECT_NAME    = SL-3 R/B
OBJECT_ID      = 1982-079B
CENTER_NAME    = EARTH
REF_FRAME      = TEME
TIME_SYSTEM    = UTC
MEAN_ELEMENT_THEORY = SGP/SGP4

EPOCH          = 2025-12-09T11:06:23.372064
MEAN_MOTION    = 15.23527906
ECCENTRICITY   = .0026975
INCLINATION    = 81.1472
RA_OF_ASC_NODE = 299.5232
ARG_OF_PERICENTER = 109.5034
MEAN_ANOMALY   = 250.9116

EPHEMERIS_TYPE = 0
CLASSIFICATION_TYPE = U
NORAD_CAT_ID   = 13403
ELEMENT_SET_NO = 999
REV_AT_EPOCH   = 36395
BSTAR          = .33694E-3
MEAN_MOTION_DOT = .8156E-4
MEAN_MOTION_DDOT = 0

CCSDS_OMM_VERS = 2.0
CREATION_DATE  = 
ORIGINATOR     = 

OBJECT_NAME    = SL-14 R/B
OBJECT_ID      = 1982-092B
CENTER_NAME    = EARTH
REF_FRAME      = TEME
TIME_SYSTEM    = UTC
MEAN_ELEMENT_THEORY = SGP/SGP4

EPOCH          = 2025-12-09T04:35:08.103264
MEAN_MOTION    = 14.86549856
ECCENTRICITY   = .00190017
INCLINATION    = 82.5688
RA_OF_ASC_NODE = 226.0304
ARG_OF_PERICENTER = 239.6808
MEAN_ANOMALY   = 238.7982

EPHEMERIS_TYPE = 0
CLASSIFICATION_TYPE = U
NORAD_CAT_ID   = 13553
ELEMENT_SET_NO = 999
REV_AT_EPOCH   = 31548
BSTAR          = .81468718E-4
MEAN_MOTION_DOT = .748E-5
MEAN_MOTION_DDOT = 0

CCSDS_OMM_VERS = 2.0
CREATION_DATE  = 
ORIGINATOR     = 

OBJECT_NAME    = SL-3 R/B
OBJECT_ID      = 1983-010B
CENTER_NAME    = EARTH
REF_FRAME      = TEME
TIME_SYSTEM    = UTC
MEAN_ELEMENT_THEORY = SGP/SGP4

EPOCH          = 2025-12-09T11:10:24.188736
MEAN_MOTION    = 15.43320263
ECCENTRICITY   = .0017355
INCLINATION    = 81.1040
RA_OF_ASC_NODE = 112.6150
ARG_OF_PERICENTER = 2.5094
MEAN_ANOMALY   = 357.6232

EPHEMERIS_TYPE = 0
CLASSIFICATION_TYPE = U
NORAD_CAT_ID   = 13819
ELEMENT_SET_NO = 999
REV_AT_EPOCH   = 34401
BSTAR          = .42272E-3
MEAN_MOTION_DOT = .18981E-3
MEAN_MOTION_DDOT = 0

CCSDS_OMM_VERS = 2.0
CREATION_DATE  = 
ORIGINATOR     = 

OBJECT_NAME    = SL-3 R/B
OBJECT_ID      = 1983-075B
CENTER_NAME    = EARTH
REF_FRAME      = TEME
TIME_SYSTEM    = UTC
MEAN_ELEMENT_THEORY = SGP/SGP4

EPOCH          = 2025-12-09T11:09:36.425952
MEAN_MOTION    = 15.36031838
ECCENTRICITY   = .0022383
INCLINATION    = 97.6108
RA_OF_ASC_NODE = 339.8384
ARG_OF_PERICENTER = 187.1266
MEAN_ANOMALY   = 172.9663

EPHEMERIS_TYPE = 0
CLASSIFICATION_TYPE = U
NORAD_CAT_ID   = 14208
ELEMENT_SET_NO = 999
REV_AT_EPOCH   = 31629
BSTAR          = .40957E-3
MEAN_MOTION_DOT = .14413E-3
MEAN_MOTION_DDOT = 0

CCSDS_OMM_VERS = 2.0
CREATION_DATE  = 
ORIGINATOR     = 

OBJECT_NAME    = COSMOS 1536
OBJECT_ID      = 1984-013A
CENTER_NAME    = EARTH
REF_FRAME      = TEME
TIME_SYSTEM    = UTC
MEAN_ELEMENT_THEORY = SGP/SGP4

EPOCH          = 2025-12-09T01:26:29.483808
MEAN_MOTION    = 15.22455565
ECCENTRICITY   = .00133679
INCLINATION    = 82.5455
RA_OF_ASC_NODE = 197.8137
ARG_OF_PERICENTER = 239.9466
MEAN_ANOMALY   = 120.0445

EPHEMERIS_TYPE = 0
CLASSIFICATION_TYPE = U
NORAD_CAT_ID   = 14699
ELEMENT_SET_NO = 999
REV_AT_EPOCH   = 25882
BSTAR          = .30180322E-3
MEAN_MOTION_DOT = .703E-4
MEAN_MOTION_DDOT = 0

CCSDS_OMM_VERS = 2.0
CREATION_DATE  = 
ORIGINATOR     = 

OBJECT_NAME    = SL-14 R/B
OBJECT_ID      = 1984-027B
CENTER_NAME    = EARTH
REF_FRAME      = TEME
TIME_SYSTEM    = UTC
MEAN_ELEMENT_THEORY = SGP/SGP4

EPOCH          = 2025-12-09T10:59:12.081408
MEAN_MOTION    = 14.85869416
ECCENTRICITY   = .0016385
INCLINATION    = 82.5410
RA_OF_ASC_NODE = 329.6342
ARG_OF_PERICENTER = 272.7438
MEAN_ANOMALY   = 87.1903

EPHEMERIS_TYPE = 0
CLASSIFICATION_TYPE = U
NORAD_CAT_ID   = 14820
ELEMENT_SET_NO = 999
REV_AT_EPOCH   = 23423
BSTAR          = .10845E-3
MEAN_MOTION_DOT = .97E-5
MEAN_MOTION_DDOT = 0

CCSDS_OMM_VERS = 2.0
CREATION_DATE  = 
ORIGINATOR     = 

OBJECT_NAME    = SL-8 R/B
OBJECT_ID      = 1985-006B
CENTER_NAME    = EARTH
REF_FRAME      = TEME
TIME_SYSTEM    = UTC
MEAN_ELEMENT_THEORY = SGP/SGP4

EPOCH          = 2025-12-09T09:55:25.764960
MEAN_MOTION    = 14.37718524
ECCENTRICITY   = .0018536
INCLINATION    = 74.0467
RA_OF_ASC_NODE = 67.2544
ARG_OF_PERICENTER = 0.3242
MEAN_ANOMALY   = 71.6943

EPHEMERIS_TYPE = 0
CLASSIFICATION_TYPE = U
NORAD_CAT_ID   = 15483
ELEMENT_SET_NO = 999
REV_AT_EPOCH   = 14105
BSTAR          = .17217E-3
MEAN_MOTION_DOT = .493E-5
MEAN_MOTION_DDOT = 0

CCSDS_OMM_VERS = 2.0
CREATION_DATE  = 
ORIGINATOR     = 

OBJECT_NAME    = SL-12 R/B(2)
OBJECT_ID      = 1985-042D
CENTER_NAME    = EARTH
REF_FRAME      = TEME
TIME_SYSTEM    = UTC
MEAN_ELEMENT_THEORY = SGP/SGP4

EPOCH          = 2025-12-09T07:25:33.176064
MEAN_MOTION    = 14.21950538
ECCENTRICITY   = .0037678
INCLINATION    = 71.1086
RA_OF_ASC_NODE = 278.6666
ARG_OF_PERICENTER = 266.5572
MEAN_ANOMALY   = 208.3199

EPHEMERIS_TYPE = 0
CLASSIFICATION_TYPE = U
NORAD_CAT_ID   = 15772
ELEMENT_SET_NO = 999
REV_AT_EPOCH   = 10154
BSTAR          = .16236E-3
MEAN_MOTION_DOT = .313E-5
MEAN_MOTION_DDOT = 0

CCSDS_OMM_VERS = 2.0
CREATION_DATE  = 
ORIGINATOR     = 

OBJECT_NAME    = SL-14 R/B
OBJECT_ID      = 1985-069B
CENTER_NAME    = EARTH
REF_FRAME      = TEME
TIME_SYSTEM    = UTC
MEAN_ELEMENT_THEORY = SGP/SGP4

EPOCH          = 2025-12-09T09:39:53.540064
MEAN_MOTION    = 14.86318818
ECCENTRICITY   = .0019973
INCLINATION    = 82.5264
RA_OF_ASC_NODE = 109.8399
ARG_OF_PERICENTER = 128.8531
MEAN_ANOMALY   = 231.4472

EPHEMERIS_TYPE = 0
CLASSIFICATION_TYPE = U
NORAD_CAT_ID   = 15945
ELEMENT_SET_NO = 999
REV_AT_EPOCH   = 15942
BSTAR          = .12178E-3
MEAN_MOTION_DOT = .11E-4
MEAN_MOTION_DDOT = 0

CCSDS_OMM_VERS = 2.0
CREATION_DATE  = 
ORIGINATOR     = 

OBJECT_NAME    = SL-16 R/B
OBJECT_ID      = 1985-097B
CENTER_NAME    = EARTH
REF_FRAME      = TEME
TIME_SYSTEM    = UTC
MEAN_ELEMENT_THEORY = SGP/SGP4

EPOCH          = 2025-12-09T09:34:24.217824
MEAN_MOTION    = 14.16582261
ECCENTRICITY   = .0006469
INCLINATION    = 71.0030
RA_OF_ASC_NODE = 330.6366
ARG_OF_PERICENTER = 16.2142
MEAN_ANOMALY   = 89.9320

EPHEMERIS_TYPE = 0
CLASSIFICATION_TYPE = U
NORAD_CAT_ID   = 16182
ELEMENT_SET_NO = 999
REV_AT_EPOCH   = 7444
BSTAR          = .10327E-3
MEAN_MOTION_DOT = .158E-5
MEAN_MOTION_DDOT = 0

CCSDS_OMM_VERS = 2.0
CREATION_DATE  = 
ORIGINATOR     = 

OBJECT_NAME    = SL-14 R/B
OBJECT_ID      = 1986-006B
CENTER_NAME    = EARTH
REF_FRAME      = TEME
TIME_SYSTEM    = UTC
MEAN_ELEMENT_THEORY = SGP/SGP4

EPOCH          = 2025-12-09T11:15:39.919392
MEAN_MOTION    = 14.86665812
ECCENTRICITY   = .0075897
INCLINATION    = 82.5264
RA_OF_ASC_NODE = 344.6288
ARG_OF_PERICENTER = 210.7677
MEAN_ANOMALY   = 148.9081

EPHEMERIS_TYPE = 0
CLASSIFICATION_TYPE = U
NORAD_CAT_ID   = 16496
ELEMENT_SET_NO = 999
REV_AT_EPOCH   = 13580
BSTAR          = .12232E-3
MEAN_MOTION_DOT = .117E-4
MEAN_MOTION_DDOT = 0

CCSDS_OMM_VERS = 2.0
CREATION_DATE  = 
ORIGINATOR     = 

OBJECT_NAME    = COSMOS 1743
OBJECT_ID      = 1986-034A
CENTER_NAME    = EARTH
REF_FRAME      = TEME
TIME_SYSTEM    = UTC
MEAN_ELEMENT_THEORY = SGP/SGP4

EPOCH          = 2025-12-09T11:53:01.906944
MEAN_MOTION    = 15.51886891
ECCENTRICITY   = .0004669
INCLINATION    = 82.5347
RA_OF_ASC_NODE = 167.9613
ARG_OF_PERICENTER = 267.9302
MEAN_ANOMALY   = 92.1415

EPHEMERIS_TYPE = 0
CLASSIFICATION_TYPE = U
NORAD_CAT_ID   = 16719
ELEMENT_SET_NO = 999
REV_AT_EPOCH   = 16623
BSTAR          = .5759E-3
MEAN_MOTION_DOT = .34637E-3
MEAN_MOTION_DDOT = 0

